STARLINK-1338
1 25532C 20025B   21325.12083983 -.00002132  00000-0 -14289-3 0  3255
2 25532  53.0542 312.6901 0001814  53.4951 243.4280 15.06394060    11
